H1 CPF 01  gfz 2021 12 22 13  8562 tandemx   
H2 1003001  6202 36605    2021 12 22 12 59 42 2021 12 27 00 00 42   120 1 1  0 0 0
H9
10 0 59573  69102.000000  0    6450225.379  -1821553.138  -1603099.179
10 0 59573  69222.000000  0    6544166.915  -2036334.029   -711664.222
10 0 59573  69342.000000  0    6520355.182  -2216160.798    192288.300
10 0 59573  69462.000000  0    6379798.221  -2355818.526   1092855.782
10 0 59573  69582.000000  0    6125652.130  -2450835.201   1974180.666
10 0 59573  69702.000000  0    5763152.613  -2497599.411   2820738.913
10 0 59573  69822.000000  0    5299504.957  -2493459.801   3617622.104
10 0 59573  69942.000000  0    4743733.778  -2436803.650   4350805.934
10 0 59573  70062.000000  0    4106500.354  -2327113.099   5007399.127
10 0 59573  70182.000000  0    3399890.768  -2164998.968   5575872.041
10 0 59573  70302.000000  0    2637176.861  -1952210.001   6046257.151
10 0 59573  70422.000000  0    1832560.135  -1691617.650   6410318.433
10 0 59573  70542.000000  0    1000902.553  -1387178.133   6661689.802
10 0 59573  70662.000000  0     157448.846  -1043871.667   6795980.653
10 0 59573  70782.000000  0    -682453.786   -667619.756   6810847.038
10 0 59573  70902.000000  0   -1503633.822   -265182.843   6706029.234
10 0 59573  71022.000000  0   -2291368.186    155960.856   6483355.968
10 0 59573  71142.000000  0   -3031645.366    587753.638   6146714.982
10 0 59573  71262.000000  0   -3711415.608   1021711.280   5701990.061
10 0 59573  71382.000000  0   -4318824.776   1449088.220   5156964.663
10 0 59573  71502.000000  0   -4843427.263   1861052.600   4521191.608
10 0 59573  71622.000000  0   -5276373.152   2248868.341   3805830.206
10 0 59573  71742.000000  0   -5610565.262   2604079.512   3023452.980
10 0 59573  71862.000000  0   -5840783.010   2918693.272   2187825.694
10 0 59573  71982.000000  0   -5963771.082   3185357.443   1313663.377
10 0 59573  72102.000000  0   -5978289.284   3397528.497    416365.058
10 0 59573  72222.000000  0   -5885120.064   3549624.117   -488265.538
10 0 59573  72342.000000  0   -5687035.878   3637157.022  -1384306.783
10 0 59573  72462.000000  0   -5388727.217   3656847.539  -2256008.705
10 0 59573  72582.000000  0   -4996690.093   3606710.327  -3088078.412
10 0 59573  72702.000000  0   -4519078.962   3486114.129  -3865953.074
10 0 59573  72822.000000  0   -3965528.673   3295813.099  -4576055.255
10 0 59573  72942.000000  0   -3346952.143   3037950.231  -5206026.270
10 0 59573  73062.000000  0   -2675318.367   2716033.074  -5744933.157
10 0 59573  73182.000000  0   -1963417.357   2334883.884  -6183449.213
10 0 59573  73302.000000  0   -1224613.455   1900563.761  -6514004.782
10 0 59573  73422.000000  0    -472595.423   1420273.710  -6730905.418
10 0 59573  73542.000000  0     278873.208    902234.779  -6830419.825
10 0 59573  73662.000000  0    1016199.323    355549.458  -6810837.214
10 0 59573  73782.000000  0    1726201.246   -209955.023  -6672494.998
10 0 59573  73902.000000  0    2396338.940   -783899.318  -6417772.181
10 0 59573  74022.000000  0    3014930.891  -1355537.310  -6051053.414
10 0 59573  74142.000000  0    3571355.622  -1913951.983  -5578661.076
10 0 59573  74262.000000  0    4056235.291  -2448259.862  -5008758.238
10 0 59573  74382.000000  0    4461598.438  -2947822.300  -4351218.396
10 0 59573  74502.000000  0    4781016.228  -3402457.198  -3617464.513
10 0 59573  74622.000000  0    5009711.920  -3802647.258  -2820280.032
10 0 59573  74742.000000  0    5144640.771  -4139741.483  -1973592.018
10 0 59573  74862.000000  0    5184536.288  -4406143.785  -1092229.717
10 0 59573  74982.000000  0    5129921.990  -4595484.959   -191663.071
10 0 59573  75102.000000  0    4983086.453  -4702773.123    712274.236
10 0 59573  75222.000000  0    4748022.253  -4724517.099   1603671.458
10 0 59573  75342.000000  0    4430329.808  -4658819.414   2466829.966
10 0 59573  75462.000000  0    4037089.499  -4505437.126   3286547.844
10 0 59573  75582.000000  0    3576705.120  -4265809.204   4048394.738
10 0 59573  75702.000000  0    3058721.701  -3943049.426   4738970.870
10 0 59573  75822.000000  0    2493623.766  -3541904.524   5346144.286
10 0 59573  75942.000000  0    1892619.385  -3068680.681   5859262.895
10 0 59573  76062.000000  0    1267413.570  -2531138.583   6269337.995
10 0 59573  76182.000000  0     629977.566  -1938361.121   6569195.455
10 0 59573  76302.000000  0      -7681.966  -1300596.517   6753594.958
10 0 59573  76422.000000  0    -633748.758   -629078.918   6819316.266
10 0 59573  76542.000000  0   -1236814.833     64170.710   6765211.643
10 0 59573  76662.000000  0   -1806087.641    766559.422   6592224.586
10 0 59573  76782.000000  0   -2331582.705   1465150.365   6303374.349
10 0 59573  76902.000000  0   -2804299.278   2146900.119   5903706.549
10 0 59573  77022.000000  0   -3216376.083   2798902.272   5400210.872
10 0 59573  77142.000000  0   -3561225.544   3408633.633   4801705.257
10 0 59573  77262.000000  0   -3833643.498   3964197.794   4118687.151
10 0 59573  77382.000000  0   -4029891.638   4454562.288   3363153.797
10 0 59573  77502.000000  0   -4147750.877   4869783.839   2548393.145
10 0 59573  77622.000000  0   -4186543.491   5201215.283   1688747.959
10 0 59573  77742.000000  0   -4147123.672   5441689.162    799359.389
10 0 59573  77862.000000  0   -4031837.786   5585674.164   -104105.511
10 0 59573  77982.000000  0   -3844453.967   5629400.754  -1005738.812
10 0 59573  78102.000000  0   -3590061.342   5570950.045  -1889682.584
10 0 59573  78222.000000  0   -3274942.387   5410303.835  -2740416.521
10 0 59573  78342.000000  0   -2906422.118   5149357.164  -3543035.945
10 0 59573  78462.000000  0   -2492699.980   4791891.106  -4283515.279
10 0 59573  78582.000000  0   -2042667.646   4343508.971  -4948950.934
10 0 59573  78702.000000  0   -1565718.256   3811539.235  -5527779.071
10 0 59573  78822.000000  0   -1071551.705   3204908.116  -6009968.619
10 0 59573  78942.000000  0    -569978.712   2533982.204  -6387185.696
10 0 59573  79062.000000  0     -70728.362   1810386.232  -6652925.628
10 0 59573  79182.000000  0     416736.120   1046800.891  -6802614.131
10 0 59573  79302.000000  0     883392.075    256742.908  -6833678.291
10 0 59573  79422.000000  0    1320820.782   -545669.995  -6745586.061
10 0 59573  79542.000000  0    1721355.183  -1345965.961  -6539852.834
10 0 59573  79662.000000  0    2078210.934  -2129572.723  -6220017.997
10 0 59573  79782.000000  0    2385600.221  -2882076.314  -5791591.254
10 0 59573  79902.000000  0    2638826.142  -3589483.179  -5261969.342
10 0 59573  80022.000000  0    2834356.669  -4238481.901  -4640318.559
10 0 59573  80142.000000  0    2969874.594  -4816694.858  -3937425.370
10 0 59573  80262.000000  0    3044304.128  -5312918.630  -3165520.508
10 0 59573  80382.000000  0    3057813.359  -5717350.293  -2338074.261
10 0 59573  80502.000000  0    3011791.508  -6021790.292  -1469564.779
10 0 59573  80622.000000  0    2908801.382  -6219818.081   -575224.544
10 0 59573  80742.000000  0    2752506.209  -6306935.047    329231.845
10 0 59573  80862.000000  0    2547573.148  -6280668.764   1227890.449
10 0 59573  80982.000000  0    2299556.574  -6140639.010   2104926.567
10 0 59573  81102.000000  0    2014762.565  -5888579.585   2944893.808
10 0 59573  81222.000000  0    1700099.100  -5528316.519   3733003.324
10 0 59573  81342.000000  0    1362915.556  -5065705.668   4455389.062
10 0 59573  81462.000000  0    1010836.584  -4508530.620   5099354.171
10 0 59573  81582.000000  0     651593.531  -3866363.996   5653595.486
10 0 59573  81702.000000  0     292856.824  -3150392.396   6108399.693
10 0 59573  81822.000000  0     -57925.249  -2373212.704   6455807.037
10 0 59573  81942.000000  0    -393678.655  -1548605.512   6689743.628
10 0 59573  82062.000000  0    -707844.015   -691288.598   6806122.283
10 0 59573  82182.000000  0    -994503.301    183347.323   6802910.580
10 0 59573  82302.000000  0   -1248490.644   1059515.332   6680164.068
10 0 59573  82422.000000  0   -1465484.997   1921316.692   6440024.998
10 0 59573  82542.000000  0   -1642083.830   2753028.693   6086687.436
10 0 59573  82662.000000  0   -1775856.890   3539392.136   5626328.271
10 0 59573  82782.000000  0   -1865378.517   4265893.329   5067005.003
10 0 59573  82902.000000  0   -1910238.891   4919037.301   4418521.658
10 0 59573  83022.000000  0   -1911033.308   5486606.045   3692261.558
10 0 59573  83142.000000  0   -1869329.591   5957895.979   2900990.215
10 0 59573  83262.000000  0   -1787614.925   6323928.597   2058630.740
10 0 59573  83382.000000  0   -1669222.016   6577630.512   1180015.902
10 0 59573  83502.000000  0   -1518235.841   6713976.948    280621.232
10 0 59573  83622.000000  0   -1339384.539   6730095.389   -623714.649
10 0 59573  83742.000000  0   -1137916.702   6625327.698  -1517078.717
10 0 59573  83862.000000  0    -919467.093   6401243.893  -2383774.995
10 0 59573  83982.000000  0    -689916.666   6061609.129  -3208606.538
10 0 59573  84102.000000  0    -455249.912   5612309.622  -3977143.798
10 0 59573  84222.000000  0    -221412.672   5061239.293  -4675976.891
10 0 59573  84342.000000  0       5826.060   4418148.797  -5292945.852
10 0 59573  84462.000000  0     221005.654   3694462.255  -5817345.518
10 0 59573  84582.000000  0     419095.399   2903064.735  -6240102.152
10 0 59573  84702.000000  0     595603.047   2058066.392  -6553918.820
10 0 59573  84822.000000  0     746669.346   1174549.573  -6753389.783
10 0 59573  84942.000000  0     869146.805    268301.587  -6835084.357
10 0 59573  85062.000000  0     960661.460   -644462.821  -6797599.555
10 0 59573  85182.000000  0    1019656.750  -1547385.564  -6641580.302
10 0 59573  85302.000000  0    1045419.260  -2424249.803  -6369708.317
10 0 59573  85422.000000  0    1038086.739  -3259263.602  -5986662.883
10 0 59573  85542.000000  0     998636.874  -4037342.127  -5499050.291
99
